[{"OBJECT_NAME":"STARLINK-35255","OBJECT_ID":"2025-207L","EPOCH":"2026-03-09T16:52:45.665184","MEAN_MOTION":15.05644419,"ECCENTRICITY":6.763e-5,"INCLINATION":97.6022,"RA_OF_ASC_NODE":138.68,"ARG_OF_PERICENTER":107.0468,"MEAN_ANOMALY":253.0833,"EPHEMERIS_TYPE":0,"CLASSIFICATION_TYPE":"U","NORAD_CAT_ID":65602,"ELEMENT_SET_NO":999,"REV_AT_EPOCH":2826,"BSTAR":0.00016304298,"MEAN_MOTION_DOT":2.292e-5,"MEAN_MOTION_DDOT":0},{"OBJECT_NAME":"SL-6 R\/B(2)","OBJECT_ID":"1990-055D","EPOCH":"2026-03-09T21:41:59.551872","MEAN_MOTION":15.03595553,"ECCENTRICITY":0.00247741,"INCLINATION":62.7825,"RA_OF_ASC_NODE":253.121,"ARG_OF_PERICENTER":347.1508,"MEAN_ANOMALY":12.8957,"EPHEMERIS_TYPE":0,"CLASSIFICATION_TYPE":"U","NORAD_CAT_ID":20666,"ELEMENT_SET_NO":999,"REV_AT_EPOCH":93822,"BSTAR":0.00020900577,"MEAN_MOTION_DOT":2.688e-5,"MEAN_MOTION_DDOT":0}]
